#aP2001  3 19  0  0  0.00000000      96 ORBIT IGS97 HLM  IGS
## 1106  86400.00000000   900.00000000 51987 0.0000000000000
+   29     1  2  3  4  5  6  7  8  9 10 11 13 14 15 17 18 19
+         20 21 22 23 24 25 26 27 28 29 30 31  0  0  0  0  0
+          0  0  0  0  0  0  0  0  0  0  0  0  0  0  0  0  0
+          0  0  0  0  0  0  0  0  0  0  0  0  0  0  0  0  0
+          0  0  0  0  0  0  0  0  0  0  0  0  0  0  0  0  0
++         4  4  4  4  4  4  4  4  4  4  4  4  4  0  7  5  4
++         4  5  4  5  4  4  4  4  4  4  4  4  0  0  0  0  0
++         0  0  0  0  0  0  0  0  0  0  0  0  0  0  0  0  0
++         0  0  0  0  0  0  0  0  0  0  0  0  0  0  0  0  0
++         0  0  0  0  0  0  0  0  0  0  0  0  0  0  0  0  0
%c cc cc ccc ccc cccc cccc cccc cccc ccccc ccccc ccccc ccccc
%c cc cc ccc ccc cccc cccc cccc cccc ccccc ccccc ccccc ccccc
%f  0.0000000  0.000000000  0.00000000000  0.000000000000000
%f  0.0000000  0.000000000  0.00000000000  0.000000000000000
%i    0    0    0    0      0      0      0      0         0
%i    0    0    0    0      0      0      0      0         0
/* FINAL ORBIT COMBINATION FROM WEIGHTED AVERAGE OF:        
/* cod emr esa gfz jpl ngs sio                              
/* REFERENCED TO GPS CLOCK AND TO WEIGHTED MEAN POLE:       
/* CLK ANT Z-OFFSET (M): II/IIA 1.023; IIR 0.000            
*  2001  3 19  3  0  0.00000000
P  1  -5542.768113  16910.944757 -19536.920147    169.114622
P  2  16916.642608  11272.921662  17930.873591   -354.657255
P  3 -19460.007793  -5762.410592  17127.989159     12.977975
P  4  10816.491917  10795.717800 -21619.902396    694.373835
P  5  16525.519833 -13435.411211 -15833.275692    291.558647
P  6  -1067.660782 -21708.162636 -14964.330961     -0.318371
P  7  16130.854691  21152.531036  -1886.413555    579.324583
P  8   3372.738623  19370.276669  17550.410498     10.186441
P  9  15642.282022 -19739.605568   7480.062477    -36.070031
P 10  26463.117670  -2692.446010   2088.060530      1.159981
P 11 -15399.990551  20447.967868   7200.897623      1.501626
P 13   3411.656157  22587.973629 -13618.410753     -0.656227
P 14 -15182.143831 -21672.673436  -1319.855896    -95.571400
P 15  -2531.737244 -19111.103370  18007.465370 999999.999999
P 17   4923.414573 -22583.567181  12493.805042   -303.401967
P 18  -4420.886350 -15016.815127  21436.593952    -55.533528
P 19  -9709.926775  24559.103688    460.156242    469.371907
P 20 -14973.480394  13108.257824 -17669.779450    -60.651281
P 21 -18422.000075 -10510.943356  16718.822825      1.695298
P 22 -26135.876990  -1698.264435  -6164.006110    563.252013
P 23   -995.172830 -15000.367107  22378.168627      9.730584
P 24  16945.832191  -3139.263892 -19910.036725     36.728515
P 25 -13331.501607  -8289.245558 -21170.966464     12.222140
P 26  15005.337316  -4108.495090  21513.003708    385.903495
P 27  -2735.512646  24015.369568  10510.796312     14.767602
P 28 -25072.944997   5706.036271   6353.308626     14.257634
P 29 -17430.741956 -19413.066193  -5038.810346    480.755924
P 30   5312.789614 -15629.001169 -20987.964949    -12.159930
P 31 -13383.488304   7712.624849  21361.481461     35.410546
*  2001  3 19  3 15  0.00000000
P  1  -6909.679908  15020.162299 -20610.887547    169.115650
P  2  14945.760973  11719.424984  19345.555281   -354.661540
P  3 -20421.130119  -7375.927627  15304.499233     12.980542
P  4   9660.612930  12958.905920 -20949.889188    694.377169
P  5  18242.894439 -13429.253920 -13808.750409    291.558910
P  6    164.818784 -20300.241790 -16858.420877     -0.318869
P  7  15961.131629  21389.608790    926.161075    579.329584
P  8   2325.668059  21025.769320  15731.989416     10.229606
P  9  15496.270203 -18656.365706  10076.435252    -36.071500
P 10  26551.859505  -2508.245559   -786.420397      1.160496
P 11 -15325.847309  19424.801205   9743.302823      1.501930
P 13   2317.273336  21306.024945 -15738.297505     -0.655914
P 14 -14964.287311 -21815.951303   1546.148141    -95.573813
P 15  -1441.143457 -20790.736314  16200.476328 999999.999999
P 17   5781.507184 -23588.472078   9972.450100   -303.403182
P 18  -1947.542610 -15116.076626  21726.248265    -55.523444
P 19 -10011.593099  24316.413939  -2343.360304    469.385118
P 20 -16886.905438  13107.559142 -15850.594957    -60.653011
P 21 -16507.821919 -10741.044265  18460.920466      1.695403
P 22 -25371.309118  -2080.696428  -8759.750975    563.259164
P 23   1450.962106 -15069.837470  22287.990440      9.731639
P 24  15903.679397   -984.245797 -20952.879261     36.730314
P 25 -12380.256704 -10558.703021 -20755.919167     12.221695
P 26  16352.641406  -2085.147198  20867.195517    385.922526
P 27  -3436.958904  24852.665768   7935.145763     14.771256
P 28 -25650.923027   5489.125207   3563.660328     14.256929
P 29 -17498.255410 -19911.730332  -2225.092559    480.770636
P 30   7631.158577 -15777.509727 -20132.590510    -12.160301
P 31 -14836.146852   5697.751226  21064.750547     35.412936
*  2001  3 19  3 30  0.00000000
P  1  -8434.483261  13121.236334 -21324.652047    169.115870
P  2  12864.039283  12292.805255  20447.147426   -354.666712
P  3 -21316.214445  -8772.155735  13217.744962     12.983384
P  4   8660.470596  15093.753038 -19915.320929    694.380830
P  5  19721.792583 -13458.753694 -11545.770924    291.561499
P  6   1586.415584 -18797.452905 -18456.705972     -0.317945
P  7  15605.073371  21390.604210   3723.080874    579.334447
P  8   1455.107705  22527.292824  13636.714195     10.272568
P  9  15301.177381 -17298.470338  12493.435883    -36.073700
P 10  26330.349575  -2283.472955  -3647.548623      1.161009
P 11 -15206.246616  18138.942835  12118.617242      1.501898
P 13   1016.883187  19907.246661 -17588.237184     -0.657363
P 14 -14554.010600 -21715.862093   4385.366439    -95.576098
P 15   -542.713390 -22325.647251  14109.487866 999999.999999
P 17   6443.646807 -24373.961801   7273.427849   -303.403015
P 18    529.499652 -15344.691484  21641.175821    -55.514277
P 19 -10231.475619  23785.967187  -5105.802412    469.396184
P 20 -18579.284210  13175.716765 -13760.233218    -60.654299
P 21 -14432.656584 -11103.247376  19900.367873      1.696073
P 22 -24352.318431  -2554.875680 -11210.713318    563.265755
P 23   3861.348149 -15274.618274  21830.414253      9.733724
P 24  14941.312189   1315.691837 -21625.396897     36.732090
P 25 -11561.162756 -12804.172474 -19976.108793     12.222216
P 26  17745.528366   -215.033466  19863.642699    385.941522
P 27  -3998.660738  25439.527650   5219.101363     14.772785
P 28 -25922.390842   5256.133579    712.079577     14.255843
P 29 -17389.781936 -20157.204060    626.774500    480.785084
P 30   9826.934708 -16022.771831 -18935.900103    -12.161562
P 31 -16349.023306   3802.171954  20398.415968     35.414676
*  2001  3 19  3 45  0.00000000
P  1 -10095.185076  11258.482078 -21665.660277    169.116836
P  2  10713.142136  12997.954050  21217.633543   -354.673161
P  3 -22104.986101  -9944.499818  10903.798332     12.986256
P  4   7821.988108  17150.981374 -18533.663430    694.384454
P  5  20940.185439 -13490.506925  -9083.223201    291.563512
P  6   3187.842350 -17244.117097 -19731.279153     -0.316503
P  7  15038.956786  21182.927797   6457.215655    579.339620
P  8    749.681417  23832.867329  11301.737171     10.315379
P  9  15094.656729 -15680.122477  14687.918329    -36.074895
P 10  25809.086657  -1980.883142  -6446.731572      1.161723
P 11 -15076.406274  16603.273225  14286.102225      1.501905
P 13   -485.215020  18436.212690 -19136.299814     -0.657324
P 14 -13926.753965 -21400.922588   7148.660791    -95.578212
P 15    173.551783 -23671.737464  11771.680673 999999.999999
P 17   6931.863368 -24904.345686   4444.600471   -303.403309
P 18   2961.496076 -15696.843168  21182.654671    -55.504702
P 19 -10404.426071  22965.897846  -7778.670779    469.404969
P 20 -20021.881866  13280.862950 -11434.406379    -60.655951
P 21 -12239.383164 -11611.109100  21012.855403      1.699141
P 22 -23105.558589  -3146.725518 -13476.563729    563.272925
P 23   6189.341487 -15603.834281  21012.113091      9.735650
P 24  14087.670255   3717.345286 -21915.475790     36.734163
P 25 -10879.332590 -14978.620878 -18846.047423     12.223536
P 26  19145.607867   1474.303994  18521.198023    385.960423
P 27  -4447.430437  25749.477042   2410.316818     14.774965
P 28 -25887.687191   4969.708720  -2151.885419     14.254783
P 29 -17075.883846 -20172.486303   3467.963269    480.800055
P 30  11860.807881 -16342.619405 -17417.756397    -12.162534
P 31 -17885.284893   2056.744729  19375.341308     35.415263
EOF
